ONEWEB-0403             
1 50483U 21132Q   25104.86988418 -.00000008  00000+0 -53454-4 0  9997
2 50483  87.9113  60.5850 0002007  85.1227 275.0134 13.18685846166420
ONEWEB-0404             
1 50484U 21132R   25105.53550878  .00000412  00000+0  11261-2 0  9993
2 50484  87.8796 106.3202 0002291  96.8804 263.2585 13.11417188159642
ONEWEB-0405             
1 50485U 21132S   25104.96156850  .00000053  00000+0  10051-3 0  9990
2 50485  87.9115  60.5569 0002309  78.8872 281.2519 13.18685444165554
ONEWEB-0406             
1 50486U 21132T   25104.95050213  .00000078  00000+0  16431-3 0  9991
2 50486  87.9114  60.5774 0001950 100.0809 260.0544 13.18685676165180
ONEWEB-0407             
1 50487U 21132U   25105.32355944  .00000050  00000+0  94077-4 0  9996
2 50487  87.9110  60.4909 0002117  80.8395 279.2977 13.18685472165172
ONEWEB-0409             
1 50488U 21132V   25105.53382699  .00001448  00000+0  40487-2 0  9993
2 50488  87.8776 106.2907 0002133  97.1927 262.9444 13.11412286159532
ONEWEB-0412             
1 50489U 21132W   25105.31248102  .00000045  00000+0  81228-4 0  9992
2 50489  87.9116  60.5073 0002318  75.5490 284.5899 13.18683718165266
ONEWEB-0413             
1 50490U 21132X   25105.31723629  .00000068  00000+0  13866-3 0  9993
2 50490  87.9115  60.5179 0002148  73.1510 286.9858 13.18685291165205
